OBJECT_NAME,OBJECT_ID,EPOCH,MEAN_MOTION,ECCENTRICITY,INCLINATION,RA_OF_ASC_NODE,ARG_OF_PERICENTER,MEAN_ANOMALY,EPHEMERIS_TYPE,CLASSIFICATION_TYPE,NORAD_CAT_ID,ELEMENT_SET_NO,REV_AT_EPOCH,BSTAR,MEAN_MOTION_DOT,MEAN_MOTION_DDOT
ASBM-1,2024-143A,2024-10-06T14:08:27.176352,1.50423058,0.5319669,62.2956,68.8059,268.0263,33.3575,0,U,60422,999,231,0,2.7E-07,0
ASBM-2,2024-143B,2024-10-08T21:59:17.993472,1.50422006,0.534454,62.2728,68.7906,267.6032,33.3741,0,U,60423,999,233,0,3.4E-07,0
STARLINK-32250,2024-144A,2024-10-08T18:38:41.827200,15.30193961,0.0001143,53.1623,98.4097,79.0994,281.0135,0,U,60425,999,926,1.1114E-04,2.933E-05,0
STARLINK-32226,2024-144B,2024-10-09T11:51:47.653056,15.30240035,0.0001297,53.1625,95.0670,101.7591,258.3556,0,U,60426,999,1027,-3.2588E-04,-1.001E-04,0
STARLINK-32254,2024-144C,2024-10-09T11:33:33.205248,15.30177375,0.0001944,53.1616,94.9855,107.6495,252.4718,0,U,60427,999,1031,1.9116E-05,2.06E-06,0
STARLINK-32193,2024-144D,2024-10-09T11:48:44.410752,15.30186836,0.000115,53.1626,95.0476,114.6320,245.4801,0,U,60428,999,1031,1.9875E-05,2.29E-06,0
STARLINK-32242,2024-144E,2024-10-09T11:38:07.295424,15.30175321,0.0001332,53.1617,95.0054,100.3407,259.7744,0,U,60429,999,1031,-3.6261E-05,-1.432E-05,0
STARLINK-32196,2024-144F,2024-10-09T11:28:59.822688,15.30178519,0.0001426,53.1615,94.9672,78.7086,281.4075,0,U,60430,999,1027,-4.3066E-06,-4.87E-06,0
STARLINK-32232,2024-144G,2024-10-09T11:44:11.638176,15.30165804,0.0001246,53.1617,95.0309,86.2789,273.8355,0,U,60431,999,1027,6.7059E-05,1.625E-05,0
STARLINK-32246,2024-144H,2024-10-09T11:27:28.770912,15.30190957,0.0001142,53.1620,94.9595,102.2553,257.8575,0,U,60432,999,1027,-1.2582E-04,-4.082E-05,0
STARLINK-32183,2024-144J,2024-10-09T11:24:26.059104,15.30184856,0.0001265,53.1605,94.9452,90.2834,269.8311,0,U,60433,999,1027,-3.8003E-05,-1.484E-05,0
STARLINK-32233,2024-144K,2024-10-09T12:44:49.089408,15.30177394,0.0001064,53.1615,94.5843,88.0307,272.0816,0,U,60434,999,1022,-3.6752E-05,-1.446E-05,0
STARLINK-32222,2024-144L,2024-10-09T11:15:19.173024,15.30175950,0.0001288,53.1626,94.9070,92.6764,267.4384,0,U,60435,999,1027,5.0063E-06,-2.11E-06,0
STARLINK-32229,2024-144M,2024-10-09T11:06:12.210912,15.30176046,0.0001098,53.1603,94.8691,70.3709,289.7410,0,U,60436,999,1027,-3.0779E-07,-3.68E-06,0
STARLINK-32241,2024-144N,2024-10-09T04:48:28.276128,15.30180078,0.0001099,53.1622,96.0724,94.2931,265.8196,0,U,60437,999,1017,-1.4137E-05,-7.77E-06,0
STARLINK-32240,2024-144P,2024-10-09T04:45:25.225632,15.30187323,0.0001177,53.1613,96.0589,95.8776,264.2359,0,U,60438,999,1026,-1.1395E-05,-6.96E-06,0
STARLINK-32231,2024-144Q,2024-10-09T10:51:00.766944,15.30166708,0.0001248,53.1605,94.7975,78.7436,281.3705,0,U,60439,999,937,2.3954E-05,3.5E-06,0
STARLINK-32195,2024-144R,2024-10-09T04:40:51.880224,15.30188998,0.0001181,53.1614,96.0398,93.0234,267.0902,0,U,60440,999,1023,-4.4765E-05,-1.684E-05,0
STARLINK-32177,2024-144S,2024-10-09T10:46:25.653792,15.30191320,0.000068,53.1593,94.7823,60.0641,300.0427,0,U,60441,999,1027,6.9432E-05,1.698E-05,0
STARLINK-32252,2024-144T,2024-10-09T12:11:23.672832,15.30176858,0.0000854,53.1608,94.4357,90.3596,269.7502,0,U,60442,999,1032,-6.7997E-05,-2.371E-05,0
STARLINK-32237,2024-144U,2024-10-09T12:15:56.967264,15.30175195,0.0001388,53.1621,94.4596,101.3158,258.7999,0,U,60443,999,1028,-9.5122E-06,-6.41E-06,0
STARLINK-32249,2024-144V,2024-10-08T18:47:39.822720,15.30200568,0.0001193,53.1624,97.7313,100.9115,259.2020,0,U,60444,999,1021,3.217E-06,-2.64E-06,0
STARLINK-32228,2024-144W,2024-10-09T12:06:50.615136,15.30169089,0.0001134,53.1624,94.4167,105.2224,254.8902,0,U,60445,999,1032,-8.295E-05,-2.812E-05,0
STARLINK-32247,2024-144X,2024-10-09T14:00:01.000224,15.62486700,0.0000991,53.1597,87.4807,66.6941,39.7093,0,U,60446,999,607,-6.1125E-03,-5.2024E-03,0
STARLINK-32101,2024-144Y,2024-10-09T12:14:25.961280,15.30182821,0.0001376,53.1627,94.4529,98.8684,261.2473,0,U,60447,999,1028,-7.0994E-05,-2.46E-05,0
PROGRESS-MS 28,2024-145A,2024-10-09T13:00:16.333344,15.49541134,0.0008027,51.6395,108.9836,61.2002,349.0996,0,U,60450,999,47550,6.8853E-04,3.8437E-04,0
LEGION 3,2024-146A,2024-10-09T12:10:31.018080,15.39595245,0.0018113,44.9990,102.7121,268.4435,91.4378,0,U,60452,999,846,9.5168E-04,3.8332E-04,0
LEGION 4,2024-146B,2024-10-09T12:05:11.173056,14.57623587,0.0003319,45.0370,136.3844,64.2906,295.8293,0,U,60453,999,801,4.3325E-04,1.839E-05,0
EOS-08,2024-147A,2024-10-09T01:35:15.894816,15.34364436,0.0005723,37.3821,325.5331,79.6597,280.4809,0,U,60454,999,792,1.8123E-03,6.2254E-04,0
SR-0 DEMOSAT,2024-147B,2024-10-09T10:23:03.683328,15.58082192,0.002339,37.3759,318.1675,106.9829,253.3505,0,U,60455,999,803,7.1377E-03,6.02966E-03,0
