ASBM-1                  
1 60422U 24143A   24280.58920343  .00000027  00000+0  00000+0 0  9995
2 60422  62.2956  68.8059 5319669 268.0263  33.3575  1.50423058  2318
ASBM-2                  
1 60423U 24143B   24282.91618048  .00000034  00000+0  00000+0 0  9999
2 60423  62.2728  68.7906 5344540 267.6032  33.3741  1.50422006  2330
STARLINK-32250          
1 60425U 24144A   24282.77687300  .00002933  00000+0  11114-3 0  9995
2 60425  53.1623  98.4097 0001143  79.0994 281.0135 15.30193961  9268
STARLINK-32226          
1 60426U 24144B   24283.49430154 -.00010010  00000+0 -32588-3 0  9994
2 60426  53.1625  95.0670 0001297 101.7591 258.3556 15.30240035 10279
STARLINK-32254          
1 60427U 24144C   24283.48163432  .00000206  00000+0  19116-4 0  9993
2 60427  53.1616  94.9855 0001944 107.6495 252.4718 15.30177375 10316
STARLINK-32193          
1 60428U 24144D   24283.49218068  .00000229  00000+0  19875-4 0  9998
2 60428  53.1626  95.0476 0001150 114.6320 245.4801 15.30186836 10310
STARLINK-32242          
1 60429U 24144E   24283.48480666 -.00001432  00000+0 -36261-4 0  9990
2 60429  53.1617  95.0054 0001332 100.3407 259.7744 15.30175321 10314
STARLINK-32196          
1 60430U 24144F   24283.47847017 -.00000487  00000+0 -43066-5 0  9999
2 60430  53.1615  94.9672 0001426  78.7086 281.4075 15.30178519 10279
STARLINK-32232          
1 60431U 24144G   24283.48902359  .00001625  00000+0  67059-4 0  9992
2 60431  53.1617  95.0309 0001246  86.2789 273.8355 15.30165804 10274
STARLINK-32246          
1 60432U 24144H   24283.47741633 -.00004082  00000+0 -12582-3 0  9990
2 60432  53.1620  94.9595 0001142 102.2553 257.8575 15.30190957 10270
STARLINK-32183          
1 60433U 24144J   24283.47530161 -.00001484  00000+0 -38003-4 0  9993
2 60433  53.1605  94.9452 0001265  90.2834 269.8311 15.30184856 10272
STARLINK-32233          
1 60434U 24144K   24283.53112372 -.00001446  00000+0 -36752-4 0  9998
2 60434  53.1615  94.5843 0001064  88.0307 272.0816 15.30177394 10221
STARLINK-32222          
1 60435U 24144L   24283.46897191 -.00000211  00000+0  50063-5 0  9990
2 60435  53.1626  94.9070 0001288  92.6764 267.4384 15.30175950 10275
STARLINK-32229          
1 60436U 24144M   24283.46264133 -.00000368  00000+0 -30779-6 0  9992
2 60436  53.1603  94.8691 0001098  70.3709 289.7410 15.30176046 10274
STARLINK-32241          
1 60437U 24144N   24283.20032727 -.00000777  00000+0 -14137-4 0  9999
2 60437  53.1622  96.0724 0001099  94.2931 265.8196 15.30180078 10175
STARLINK-32240          
1 60438U 24144P   24283.19820863 -.00000696  00000+0 -11395-4 0  9997
2 60438  53.1613  96.0589 0001177  95.8776 264.2359 15.30187323 10260
STARLINK-32231          
1 60439U 24144Q   24283.45209221  .00000350  00000+0  23954-4 0  9995
2 60439  53.1605  94.7975 0001248  78.7436 281.3705 15.30166708  9377
STARLINK-32195          
1 60440U 24144R   24283.19504491 -.00001684  00000+0 -44765-4 0  9991
2 60440  53.1614  96.0398 0001181  93.0234 267.0902 15.30188998 10237
STARLINK-32177          
1 60441U 24144S   24283.44890803  .00001698  00000+0  69432-4 0  9996
2 60441  53.1593  94.7823 0000680  60.0641 300.0427 15.30191320 10278
STARLINK-32252          
1 60442U 24144T   24283.50791288 -.00002371  00000+0 -67997-4 0  9996
2 60442  53.1608  94.4357 0000854  90.3596 269.7502 15.30176858 10323
STARLINK-32237          
1 60443U 24144U   24283.51107601 -.00000641  00000+0 -95122-5 0  9998
2 60443  53.1621  94.4596 0001388 101.3158 258.7999 15.30175195 10280
STARLINK-32249          
1 60444U 24144V   24282.78309980 -.00000264  00000+0  32170-5 0  9995
2 60444  53.1624  97.7313 0001193 100.9115 259.2020 15.30200568 10216
STARLINK-32228          
1 60445U 24144W   24283.50475249 -.00002812  00000+0 -82950-4 0  9991
2 60445  53.1624  94.4167 0001134 105.2224 254.8902 15.30169089 10326
STARLINK-32247          
1 60446U 24144X   24283.58334491 -.00520240  00000+0 -61125-2 0  9992
2 60446  53.1597  87.4807 0000991  66.6941  39.7093 15.62486700  6070
STARLINK-32101          
1 60447U 24144Y   24283.51002270 -.00002460  00000+0 -70994-4 0  9998
2 60447  53.1627  94.4529 0001376  98.8684 261.2473 15.30182821 10287
PROGRESS-MS 28          
1 60450U 24145A   24283.54185571  .00038437  00000+0  68853-3 0  9993
2 60450  51.6395 108.9836 0008027  61.2002 349.0996 15.49541134475507
LEGION 3                
1 60452U 24146A   24283.50730345  .00038332  00000+0  95168-3 0  9990
2 60452  44.9990 102.7121 0018113 268.4435  91.4378 15.39595245  8462
LEGION 4                
1 60453U 24146B   24283.50360154  .00001839  00000+0  43325-3 0  9998
2 60453  45.0370 136.3844 0003319  64.2906 295.8293 14.57623587  8016
EOS-08                  
1 60454U 24147A   24283.06615619  .00062254  00000+0  18123-2 0  9995
2 60454  37.3821 325.5331 0005723  79.6597 280.4809 15.34364436  7925
SR-0 DEMOSAT            
1 60455U 24147B   24283.43268152  .00602966  00000+0  71377-2 0  9993
2 60455  37.3759 318.1675 0023390 106.9829 253.3505 15.58082192  8034
